NORAD_CAT_ID,OBJECT_NAME,OBJECT_TYPE,EPOCH,MEAN_MOTION,ECCENTRICITY,INCLINATION,RA_OF_ASC_NODE,ARG_OF_PERICENTER,MEAN_ANOMALY,BSTAR,MEAN_MOTION_DOT,MEAN_MOTION_DDOT,TLE_LINE0,TLE_LINE1,TLE_LINE2,SEMIMAJOR_AXIS,PERIOD,APOGEE,PERIGEE,DECAYED
55409.0,STARLINK-5047,PAYLOAD,2023-06-16 11:05:37,15.69923682,0.0004043,69.996,67.9499,261.7076,98.3661,1.4004e-05,1.471e-05,0.0,0 STARLINK-5047,1 55409U 23014U   23167.46223698  .00001471  00000-0  14004-4 0  9998,2 55409  69.9960  67.9499 0004043 261.7076  98.3661 15.69923682 21511,6737.252,91.724,361.841,356.393,0.0
55409.0,STARLINK-5047,PAYLOAD,2023-06-16 23:19:38,15.69918811,0.0003311,69.9976,66.5172,256.4407,103.642,8.7708e-06,8.42e-06,0.0,0 STARLINK-5047,1 55409U 23014U   23167.97197825  .00000842  00000-0  87708-5 0  9999,2 55409  69.9976  66.5172 0003311 256.4407 103.6420 15.69918811 21596,6737.266,91.724,361.362,356.901,0.0
55409.0,STARLINK-5047,PAYLOAD,2023-06-17 02:23:09,15.69916574,0.0003423,69.998,66.1597,260.4456,99.6353,-1.6634e-06,-4.13e-06,0.0,0 STARLINK-5047,1 55409U 23014U   23168.09941582 -.00000413  00000-0 -16634-5 0  9996,2 55409  69.9980  66.1597 0003423 260.4456  99.6353 15.69916574 22551,6737.273,91.725,361.444,356.832,0.0
55409.0,STARLINK-5047,PAYLOAD,2023-06-17 20:44:11,15.69925364,0.0003095,69.9977,64.0113,281.9623,78.1226,-7.1164e-06,-1.068e-05,0.0,0 STARLINK-5047,1 55409U 23014U   23168.86401809 -.00001068  00000-0 -71164-5 0  9990,2 55409  69.9977  64.0113 0003095 281.9623  78.1226 15.69925364 22678,6737.248,91.724,361.198,357.027,0.0
55409.0,STARLINK-5047,PAYLOAD,2023-06-17 23:47:38,15.69988014,0.0003135,69.9961,63.6545,248.572,111.5142,-7.5065e-05,-9.252e-05,0.0,0 STARLINK-5047,1 55409U 23014U   23168.99142111 -.00009252  00000-0 -75065-4 0  9998,2 55409  69.9961  63.6545 0003135 248.5720 111.5142 15.69988014 21755,6737.068,91.72,361.045,356.821,0.0
55409.0,STARLINK-5047,PAYLOAD,2023-06-18 02:51:09,15.69946988,0.0003702,69.9975,63.2946,266.2102,93.8671,1.693e-05,1.825e-05,0.0,0 STARLINK-5047,1 55409U 23014U   23169.11886277  .00001825  00000-0  16930-4 0  9993,2 55409  69.9975  63.2946 0003702 266.2102  93.8671 15.69946988 21777,6737.186,91.723,361.545,356.557,0.0
55409.0,STARLINK-5047,PAYLOAD,2023-06-18 10:29:57,15.69917387,0.0002927,69.9976,62.3972,271.7359,88.3501,1.0711e-05,1.075e-05,0.0,0 STARLINK-5047,1 55409U 23014U   23169.43746774  .00001075  00000-0  10711-4 0  9993,2 55409  69.9976  62.3972 0002927 271.7359  88.3501 15.69917387 22762,6737.27,91.725,361.107,357.163,0.0
55409.0,STARLINK-5047,PAYLOAD,2023-06-19 01:47:27,15.69929051,0.0003529,69.9975,60.6069,268.7129,91.3662,2.0376e-05,2.238e-05,0.0,0 STARLINK-5047,1 55409U 23014U   23170.07462565  .00002238  00000-0  20376-4 0  9998,2 55409  69.9975  60.6069 0003529 268.7129  91.3662 15.69929051 22863,6737.237,91.724,361.48,356.724,0.0
55409.0,STARLINK-5047,PAYLOAD,2023-06-19 23:11:59,15.69932562,0.0003578,69.9978,58.0982,264.7307,95.348,-7.0174e-07,-2.97e-06,0.0,0 STARLINK-5047,1 55409U 23014U   23170.96666284 -.00000297  00000-0 -70174-6 0  9998,2 55409  69.9978  58.0982 0003578 264.7307  95.3480 15.69932562 22064,6737.227,91.724,361.503,356.681,0.0
55409.0,STARLINK-5047,PAYLOAD,2023-06-20 09:54:15,15.69931938,0.0003521,69.9995,56.8454,266.7675,93.3118,6.0841e-06,5.19e-06,0.0,0 STARLINK-5047,1 55409U 23014U   23171.41267710  .00000519  00000-0  60841-5 0  9994,2 55409  69.9995  56.8454 0003521 266.7675  93.3118 15.69931938 23075,6737.229,91.724,361.466,356.722,0.0
55409.0,STARLINK-5047,PAYLOAD,2023-06-20 17:33:01,15.69923489,0.0003673,69.9994,55.9496,267.48,92.5975,7.0342e-06,6.33e-06,0.0,0 STARLINK-5047,1 55409U 23014U   23171.73126486  .00000633  00000-0  70342-5 0  9997,2 55409  69.9994  55.9496 0003673 267.4800  92.5975 15.69923489 22181,6737.253,91.724,361.592,356.643,0.0
55409.0,STARLINK-5047,PAYLOAD,2023-06-20 19:04:46,15.6992546,0.0003625,69.9979,55.7699,267.6562,92.4218,1.1233e-05,1.138e-05,0.0,0 STARLINK-5047,1 55409U 23014U   23171.79498095  .00001138  00000-0  11233-4 0  9995,2 55409  69.9979  55.7699 0003625 267.6562  92.4218 15.69925460 23137,6737.247,91.724,361.555,356.67,0.0
55409.0,STARLINK-5047,PAYLOAD,2023-06-21 01:11:46,15.69925607,0.0003674,69.9981,55.0529,270.899,89.1785,1.4881e-05,1.577e-05,0.0,0 STARLINK-5047,1 55409U 23014U   23172.04984686  .00001577  00000-0  14881-4 0  9999,2 55409  69.9981  55.0529 0003674 270.8990  89.1785 15.69925607 23179,6737.247,91.724,361.587,356.637,0.0
55409.0,STARLINK-5047,PAYLOAD,2023-06-21 19:32:48,15.69939485,0.0003294,69.998,52.9036,268.4976,91.5842,-2.4935e-05,-3.212e-05,0.0,0 STARLINK-5047,1 55409U 23014U   23172.81444727 -.00003212  00000-0 -24935-4 0  9992,2 55409  69.9980  52.9036 0003294 268.4976  91.5842 15.69939485 22351,6737.207,91.723,361.291,356.853,0.0
55409.0,STARLINK-5047,PAYLOAD,2023-06-22 09:18:34,15.69929119,0.0003612,69.9961,51.2907,262.0524,98.0262,1.2487e-05,1.289e-05,0.0,0 STARLINK-5047,1 55409U 23014U   23173.38789671  .00001289  00000-0  12487-4 0  9994,2 55409  69.9961  51.2907 0003612 262.0524  98.0262 15.69929119 22443,6737.237,91.724,361.535,356.668,0.0
55409.0,STARLINK-5047,PAYLOAD,2023-06-23 00:36:04,15.69938838,0.0003939,69.9971,49.499,254.8639,105.2121,2.1561e-05,2.382e-05,0.0,0 STARLINK-5047,1 55409U 23014U   23174.02505325  .00002382  00000-0  21561-4 0  9996,2 55409  69.9971  49.4990 0003939 254.8639 105.2121 15.69938838 22547,6737.209,91.723,361.728,356.42,0.0
55409.0,STARLINK-5047,PAYLOAD,2023-06-23 17:25:22,15.69921558,0.0003856,69.9972,47.5291,264.8624,95.2132,5.0132e-06,3.9e-06,0.0,0 STARLINK-5047,1 55409U 23014U   23174.72595230  .00000390  00000-0  50132-5 0  9991,2 55409  69.9972  47.5291 0003856 264.8624  95.2132 15.69921558 22657,6737.258,91.724,361.721,356.526,0.0
55409.0,STARLINK-5047,PAYLOAD,2023-06-24 08:43:04,15.69780896,0.0004021,69.9975,45.738,268.3252,91.7483,-0.00014795,-0.00017862,0.0,0 STARLINK-5047,1 55409U 23014U   23175.36324502 -.00017862  00000-0 -14795-3 0  9991,2 55409  69.9975  45.7380 0004021 268.3252  91.7483 15.69780896 22759,6737.661,91.733,362.235,356.817,0.0
55409.0,STARLINK-5047,PAYLOAD,2023-06-24 16:21:25,15.70219064,0.0010134,69.9979,44.8411,287.5402,72.4686,0.00039265,0.00047974,0.0,0 STARLINK-5047,1 55409U 23014U   23175.68154431  .00047974  00000-0  39265-3 0  9992,2 55409  69.9979  44.8411 0010134 287.5402  72.4686 15.70219064 22803,6736.407,91.707,365.099,351.446,0.0
55409.0,STARLINK-5047,PAYLOAD,2023-06-25 06:00:00,15.67721993,0.000352,69.9995,43.2482,270.7214,55.742,-0.0096335,-0.00960614,0.0,0 STARLINK-5047,1 55409U 23014U   23176.25001157 -.00960614  00000-0 -96335-2 0  9999,2 55409  69.9995  43.2482 0003520 270.7214  55.7420 15.67721993 22892,6743.559,91.853,367.797,363.05,0.0
55409.0,STARLINK-5047,PAYLOAD,2023-06-25 22:00:01,15.66373981,0.000374,70.0002,41.3819,273.8733,212.4297,-0.0093611,-0.00890199,0.0,0 STARLINK-5047,1 55409U 23014U   23176.91668981 -.00890199  00000-0 -93611-2 0  9990,2 55409  70.0002  41.3819 0003740 273.8733 212.4297 15.66373981 22995,6747.427,91.932,371.816,366.769,0.0
55409.0,STARLINK-5047,PAYLOAD,2023-06-26 14:00:01,15.65105697,0.0003703,70.0001,39.5191,265.7261,17.1203,-0.010304,-0.00927527,0.0,0 STARLINK-5047,1 55409U 23014U   23177.58334491 -.00927527  00000-0 -10304-1 0  9993,2 55409  70.0001  39.5191 0003703 265.7261  17.1203 15.65105697 23108,6751.072,92.007,375.437,370.437,0.0
55409.0,STARLINK-5047,PAYLOAD,2023-06-27 14:00:01,15.63154656,0.0003358,70.0004,36.732,267.2469,244.6765,-0.011272,-0.00937905,0.0,0 STARLINK-5047,1 55409U 23014U   23178.58334491 -.00937905  00000-0 -11272-1 0  9990,2 55409  70.0004  36.7320 0003358 267.2469 244.6765 15.63154656 23250,6756.688,92.121,380.822,376.284,0.0
55409.0,STARLINK-5047,PAYLOAD,2023-06-28 14:00:01,15.61201699,0.0003504,70.0003,33.9528,266.3539,107.6052,-0.012279,-0.00945933,0.0,0 STARLINK-5047,1 55409U 23014U   23179.58334491 -.00945933  00000-0 -12279-1 0  9999,2 55409  70.0003  33.9528 0003504 266.3539 107.6052 15.61201699 23412,6762.322,92.237,386.556,381.817,0.0
55409.0,STARLINK-5047,PAYLOAD,2023-06-29 22:00:00,15.58543841,0.0003347,70.0001,30.26,271.2101,27.8646,-0.012472,-0.00874327,0.0,0 STARLINK-5047,1 55409U 23014U   23180.91667824 -.00874327  00000-0 -12472-1 0  9990,2 55409  70.0001  30.2600 0003347 271.2101  27.8646 15.58543841 23625,6770.008,92.394,394.139,389.607,0.0
55409.0,STARLINK-5047,PAYLOAD,2023-06-30 22:00:00,15.56588732,0.000327,69.9999,27.4994,272.8074,231.8757,-0.013444,-0.00875521,0.0,0 STARLINK-5047,1 55409U 23014U   23181.91667824 -.00875521  00000-0 -13444-1 0  9998,2 55409  69.9999  27.4994 0003270 272.8074 231.8757 15.56588732 23775,6775.675,92.51,399.756,395.325,0.0
55409.0,STARLINK-5047,PAYLOAD,2023-07-01 14:00:01,15.55333267,0.0003414,69.9998,25.6637,265.626,12.1994,-0.01533,-0.00945739,0.0,0 STARLINK-5047,1 55409U 23014U   23182.58334491 -.00945739  00000-0 -15330-1 0  9998,2 55409  69.9998  25.6637 0003414 265.6260  12.1994 15.55333267 23880,6779.321,92.585,403.5,398.872,0.0
55409.0,STARLINK-5047,PAYLOAD,2023-07-02 04:00:00,15.54184418,0.0003475,69.999,24.0601,271.2517,30.5305,-0.016146,-0.00953988,0.0,0 STARLINK-5047,1 55409U 23014U   23183.16667824 -.00953988  00000-0 -16146-1 0  9993,2 55409  69.9990  24.0601 0003475 271.2517  30.5305 15.54184418 23972,6782.661,92.653,406.883,402.169,0.0
55409.0,STARLINK-5047,PAYLOAD,2023-07-04 06:00:02,15.5122365,0.000337,69.9996,18.354,268.8938,151.5759,-0.00034084,-0.00020134,0.0,0 STARLINK-5047,1 55409U 23014U   23185.25002315 -.00020134  00000-0 -34084-3 0  9994,2 55409  69.9996  18.3540 0003370 268.8938 151.5759 15.51223650 24291,6791.289,92.83,415.443,410.866,0.0
55409.0,STARLINK-5047,PAYLOAD,2023-07-04 22:00:01,15.51197834,0.0003424,69.9998,16.5311,273.1917,269.1127,0.0008655,0.00050955,0.0,0 STARLINK-5047,1 55409U 23014U   23185.91668981  .00050955  00000-0  86550-3 0  9991,2 55409  69.9998  16.5311 0003424 273.1917 269.1127 15.51197834 24407,6791.365,92.831,415.555,410.904,0.0
